[{"OBJECT_NAME":"TISAT 1","OBJECT_ID":"2010-035E","EPOCH":"2026-03-09T18:10:07.877568","MEAN_MOTION":15.27628633,"ECCENTRICITY":0.00013432,"INCLINATION":98.0645,"RA_OF_ASC_NODE":6.8512,"ARG_OF_PERICENTER":159.303,"MEAN_ANOMALY":200.8262,"EPHEMERIS_TYPE":0,"CLASSIFICATION_TYPE":"U","NORAD_CAT_ID":36799,"ELEMENT_SET_NO":999,"REV_AT_EPOCH":85250,"BSTAR":0.00091004793,"MEAN_MOTION_DOT":0.00024554,"MEAN_MOTION_DDOT":0},{"OBJECT_NAME":"STARLINK-33963","OBJECT_ID":"2025-099S","EPOCH":"2026-03-08T16:06:05.996736","MEAN_MOTION":15.27577129,"ECCENTRICITY":9.858e-5,"INCLINATION":42.9946,"RA_OF_ASC_NODE":181.6926,"ARG_OF_PERICENTER":305.2913,"MEAN_ANOMALY":54.7846,"EPHEMERIS_TYPE":0,"CLASSIFICATION_TYPE":"U","NORAD_CAT_ID":63968,"ELEMENT_SET_NO":999,"REV_AT_EPOCH":4718,"BSTAR":0.0013112414,"MEAN_MOTION_DOT":0.00035994,"MEAN_MOTION_DDOT":0}]
